IRIDIUM 144             
1 43249U 18030A   23286.42480380  .00000577  00000+0  19882-3 0  9993
2 43249  86.3994 339.0706 0002065  96.4820 263.6611 14.34215341290018
IRIDIUM 149             
1 43250U 18030B   23286.43114131  .00000513  00000+0  17601-3 0  9991
2 43250  86.3991 339.0452 0002014 100.0267 260.1156 14.34212698290014
IRIDIUM 157             
1 43251U 18030C   23286.51994424  .00000664  00000+0  23014-3 0  9994
2 43251  86.3995 339.0401 0002342  89.3184 270.8281 14.34216358290007
IRIDIUM 140             
1 43252U 18030D   23285.70174861  .00000197  00000+0  63347-4 0  9995
2 43252  86.3995 339.3965 0001888  93.2697 266.8714 14.34215394289949
IRIDIUM 145             
1 43253U 18030E   23286.52628785  .00000550  00000+0  18944-3 0  9991
2 43253  86.3995 339.0266 0002023 103.0892 257.0530 14.34215857289997
IRIDIUM 146             
1 43254U 18030F   23286.50726054  .00000547  00000+0  18846-3 0  9995
2 43254  86.4029 339.0534 0003564 115.1408 245.0158 14.34205666290007
IRIDIUM 148             
1 43255U 18030G   23286.40577387  .00000508  00000+0  17415-3 0  9996
2 43255  86.3995 339.1208 0002350 101.2729 258.8731 14.34222154290035
IRIDIUM 142             
1 43256U 18030H   23286.51360305  .00000492  00000+0  16879-3 0  9994
2 43256  86.3990 339.0001 0002158  94.9853 265.1590 14.34214804290007
